0 OPS 4682 DEB
1 38456U 65027FM  13283.13995148  .00000036  00000-0  10000-3 0   357
2 38456 090.2603 240.9742 0029439 339.4141 020.7619 12.95764993490157
0 OPS 4682 DEB
1 38456U 65027FM  13284.14374274  .00000036  00000-0  10000-3 0   361
2 38456 090.2589 241.0173 0028133 344.0195 015.9868 12.95766412490285
0 OPS 4682 DEB
1 38456U 65027FM  13296.11248329  .00000035  00000-0  10000-3 0   372
2 38456 090.2951 241.3948 0012300 315.0257 045.2462 12.95769897491835
